[
    {
        "Altitude(m)": 556178.5751039771,
        "Argument of Periapsis(deg)": 0.026491964442854003,
        "Eccentricity": 0.0,
        "Inclination(deg)": 53.0,
        "Latitude(deg)": 36.30034931065532,
        "Longitude(deg)": 50.21829714316076,
        "Mean Anomaly(deg)": 47.63917147031037,
        "RAAN(deg)": 119.96057347411205,
        "Satellite Name": "Starlink Shell 1 528",
        "Satellite Number": 528,
        "Semi-Major Axis(m)": 6931778.249405717,
        "Time(s)": 760
    },
    {
        "Altitude(m)": 556261.5587368335,
        "Argument of Periapsis(deg)": 0.02684054292236524,
        "Eccentricity": 0.0,
        "Inclination(deg)": 53.0,
        "Latitude(deg)": 36.71827989504884,
        "Longitude(deg)": 50.758714352231564,
        "Mean Anomaly(deg)": 48.266002673867064,
        "RAAN(deg)": 119.96005470403459,
        "Satellite Name": "Starlink Shell 1 528",
        "Satellite Number": 528,
        "Semi-Major Axis(m)": 6931778.249405717,
        "Time(s)": 770
    },
    {
        "Altitude(m)": 556344.7547219035,
        "Argument of Periapsis(deg)": 0.027189121401876473,
        "Eccentricity": 0.0,
        "Inclination(deg)": 53.0,
        "Latitude(deg)": 37.13330755355476,
        "Longitude(deg)": 51.30543940478322,
        "Mean Anomaly(deg)": 48.89283387742379,
        "RAAN(deg)": 119.95953593395711,
        "Satellite Name": "Starlink Shell 1 528",
        "Satellite Number": 528,
        "Semi-Major Axis(m)": 6931778.249405717,
        "Time(s)": 780
    },
    {
        "Altitude(m)": 556428.1075632863,
        "Argument of Periapsis(deg)": 0.02753769988138771,
        "Eccentricity": 0.0,
        "Inclination(deg)": 53.0,
        "Latitude(deg)": 37.54535746715433,
        "Longitude(deg)": 51.85859281875497,
        "Mean Anomaly(deg)": 49.519665080980474,
        "RAAN(deg)": 119.95901716387964,
        "Satellite Name": "Starlink Shell 1 528",
        "Satellite Number": 528,
        "Semi-Major Axis(m)": 6931778.249405717,
        "Time(s)": 790
    },
    {
        "Altitude(m)": 556511.5618951524,
        "Argument of Periapsis(deg)": 0.02788627836089895,
        "Eccentricity": 0.0,
        "Inclination(deg)": 53.0,
        "Latitude(deg)": 37.954353127955734,
        "Longitude(deg)": 52.41829481331028,
        "Mean Anomaly(deg)": 50.14649628453721,
        "RAAN(deg)": 119.95849839380216,
        "Satellite Name": "Starlink Shell 1 528",
        "Satellite Number": 528,
        "Semi-Major Axis(m)": 6931778.249405717,
        "Time(s)": 800
    },
    {
        "Altitude(m)": 556595.0625101337,
        "Argument of Periapsis(deg)": 0.02823485684041019,
        "Eccentricity": 0.0,
        "Inclination(deg)": 53.0,
        "Latitude(deg)": 38.360216312492604,
        "Longitude(deg)": 52.984665667738795,
        "Mean Anomaly(deg)": 50.773327488093955,
        "RAAN(deg)": 119.95797962372471,
        "Satellite Name": "Starlink Shell 1 528",
        "Satellite Number": 528,
        "Semi-Major Axis(m)": 6931778.249405717,
        "Time(s)": 810
    },
    {
        "Altitude(m)": 556678.5543875302,
        "Argument of Periapsis(deg)": 0.028583435319921423,
        "Eccentricity": 0.0,
        "Inclination(deg)": 53.0,
        "Latitude(deg)": 38.76286705650609,
        "Longitude(deg)": 53.55782606783131,
        "Mean Anomaly(deg)": 51.40015869165064,
        "RAAN(deg)": 119.95746085364722,
        "Satellite Name": "Starlink Shell 1 528",
        "Satellite Number": 528,
        "Semi-Major Axis(m)": 6931778.249405717,
        "Time(s)": 820
    },
    {
        "Altitude(m)": 556761.9827214353,
        "Argument of Periapsis(deg)": 0.028932013799432665,
        "Eccentricity": 0.0,
        "Inclination(deg)": 53.0,
        "Latitude(deg)": 39.16222363141687,
        "Longitude(deg)": 54.13789592623911,
        "Mean Anomaly(deg)": 52.02698989520737,
        "RAAN(deg)": 119.95694208356976,
        "Satellite Name": "Starlink Shell 1 528",
        "Satellite Number": 528,
        "Semi-Major Axis(m)": 6931778.249405717,
        "Time(s)": 830
    },
    {
        "Altitude(m)": 556845.2929486842,
        "Argument of Periapsis(deg)": 0.029280592278943897,
        "Eccentricity": 0.0,
        "Inclination(deg)": 53.0,
        "Latitude(deg)": 39.55820252271362,
        "Longitude(deg)": 54.72499470194974,
        "Mean Anomaly(deg)": 52.653821098764055,
        "RAAN(deg)": 119.95642331349228,
        "Satellite Name": "Starlink Shell 1 528",
        "Satellite Number": 528,
        "Semi-Major Axis(m)": 6931778.249405717,
        "Time(s)": 840
    },
    {
        "Altitude(m)": 556928.4307766331,
        "Argument of Periapsis(deg)": 0.029629170758455132,
        "Eccentricity": 0.0,
        "Inclination(deg)": 53.0,
        "Latitude(deg)": 39.95071841049496,
        "Longitude(deg)": 55.31924170539566,
        "Mean Anomaly(deg)": 53.28065230232079,
        "RAAN(deg)": 119.95590454341479,
        "Satellite Name": "Starlink Shell 1 528",
        "Satellite Number": 528,
        "Semi-Major Axis(m)": 6931778.249405717,
        "Time(s)": 850
    },
    {
        "Altitude(m)": 557011.3422107764,
        "Argument of Periapsis(deg)": 0.02997774923796637,
        "Eccentricity": 0.0,
        "Inclination(deg)": 53.0,
        "Latitude(deg)": 40.33968415241617,
        "Longitude(deg)": 55.92075470762245,
        "Mean Anomaly(deg)": 53.9074835058775,
        "RAAN(deg)": 119.95538577333733,
        "Satellite Name": "Starlink Shell 1 528",
        "Satellite Number": 528,
        "Semi-Major Axis(m)": 6931778.249405717,
        "Time(s)": 860
    },
    {
        "Altitude(m)": 557093.9735821809,
        "Argument of Periapsis(deg)": 0.030326327717477602,
        "Eccentricity": 0.0,
        "Inclination(deg)": 53.0,
        "Latitude(deg)": 40.72501076931626,
        "Longitude(deg)": 56.52965105536306,
        "Mean Anomaly(deg)": 54.53431470943422,
        "RAAN(deg)": 119.95486700325988,
        "Satellite Name": "Starlink Shell 1 528",
        "Satellite Number": 528,
        "Semi-Major Axis(m)": 6931778.249405717,
        "Time(s)": 870
    },
    {
        "Altitude(m)": 557176.2715746907,
        "Argument of Periapsis(deg)": 0.030674906196988847,
        "Eccentricity": 0.0,
        "Inclination(deg)": 53.0,
        "Latitude(deg)": 41.10660743380439,
        "Longitude(deg)": 57.1460462485394,
        "Mean Anomaly(deg)": 55.16114591299092,
        "RAAN(deg)": 119.95434823318239,
        "Satellite Name": "Starlink Shell 1 528",
        "Satellite Number": 528,
        "Semi-Major Axis(m)": 6931778.249405717,
        "Time(s)": 880
    },
    {
        "Altitude(m)": 557258.1832519376,
        "Argument of Periapsis(deg)": 0.031023484676500086,
        "Eccentricity": 0.0,
        "Inclination(deg)": 53.0,
        "Latitude(deg)": 41.48438146211336,
        "Longitude(deg)": 57.77005418209218,
        "Mean Anomaly(deg)": 55.78797711654764,
        "RAAN(deg)": 119.95382946310491,
        "Satellite Name": "Starlink Shell 1 528",
        "Satellite Number": 528,
        "Semi-Major Axis(m)": 6931778.249405717,
        "Time(s)": 890
    },
    {
        "Altitude(m)": 557339.6560841311,
        "Argument of Periapsis(deg)": 0.03137206315601132,
        "Eccentricity": 0.0,
        "Inclination(deg)": 53.0,
        "Latitude(deg)": 41.858238309535466,
        "Longitude(deg)": 58.40178737067351,
        "Mean Anomaly(deg)": 56.41480832010436,
        "RAAN(deg)": 119.95331069302745,
        "Satellite Name": "Starlink Shell 1 528",
        "Satellite Number": 528,
        "Semi-Major Axis(m)": 6931778.249405717,
        "Time(s)": 900
    },
    {
        "Altitude(m)": 557420.6379745726,
        "Argument of Periapsis(deg)": 0.03172064163552255,
        "Eccentricity": 0.0,
        "Inclination(deg)": 53.0,
        "Latitude(deg)": 42.22808156977337,
        "Longitude(deg)": 59.04135564288299,
        "Mean Anomaly(deg)": 57.04163952366108,
        "RAAN(deg)": 119.95279192294996,
        "Satellite Name": "Starlink Shell 1 528",
        "Satellite Number": 528,
        "Semi-Major Axis(m)": 6931778.249405717,
        "Time(s)": 910
    },
    {
        "Altitude(m)": 557501.0772859666,
        "Argument of Periapsis(deg)": 0.0320692201150338,
        "Eccentricity": 0.0,
        "Inclination(deg)": 53.0,
        "Latitude(deg)": 42.59381297855837,
        "Longitude(deg)": 59.68886633041257,
        "Mean Anomaly(deg)": 57.6684707272178,
        "RAAN(deg)": 119.9522731528725,
        "Satellite Name": "Starlink Shell 1 528",
        "Satellite Number": 528,
        "Semi-Major Axis(m)": 6931778.249405717,
        "Time(s)": 920
    },
    {
        "Altitude(m)": 557580.9228664244,
        "Argument of Periapsis(deg)": 0.032417798594545036,
        "Eccentricity": 0.0,
        "Inclination(deg)": 53.0,
        "Latitude(deg)": 42.95533242189828,
        "Longitude(deg)": 60.34442443890564,
        "Mean Anomaly(deg)": 58.2953019307745,
        "RAAN(deg)": 119.95175438279503,
        "Satellite Name": "Starlink Shell 1 528",
        "Satellite Number": 528,
        "Semi-Major Axis(m)": 6931778.249405717,
        "Time(s)": 930
    },
    {
        "Altitude(m)": 557660.1240752243,
        "Argument of Periapsis(deg)": 0.03276637707405627,
        "Eccentricity": 0.0,
        "Inclination(deg)": 53.0,
        "Latitude(deg)": 43.31253794933136,
        "Longitude(deg)": 61.00813128742089,
        "Mean Anomaly(deg)": 58.92213313433122,
        "RAAN(deg)": 119.95123561271755,
        "Satellite Name": "Starlink Shell 1 528",
        "Satellite Number": 528,
        "Semi-Major Axis(m)": 6931778.249405717,
        "Time(s)": 940
    }
]